BEIDOU-3 G3 (C61)       
1 45807U 20040A   26066.31662976 -.00000355  00000+0  00000+0 0  9992
2 45807   2.1970  67.1394 0004605 320.2031   2.1784  1.00274224 21042
GALAXY 30 (WAAS/PRN 135)
1 46114U 20056C   26066.51780862  .00000000  00000+0  00000+0 0  9994
2 46114   0.0219 149.1291 0002062 212.1754 225.3458  1.00272034 20278
QZS-1R (QZSS/PRN 196)   
1 49336U 21096A   26065.82405683 -.00000265  00000+0  00000+0 0  9990
2 49336  37.2488  81.0937 0747759 269.7649 244.5984  1.00290649 15989
QZS-6 (QZSS/PRN 200)    
1 62876U 25023A   26066.60622347 -.00000234  00000+0  00000+0 0  9999
2 62876   0.0200 262.9949 0001813  83.9353 127.0920  1.00269508  3946
