[{"OBJECT_NAME":"BEIDOU-3 G3 (PRN 143)","OBJECT_ID":"2020-040A","EPOCH":"2026-03-07T07:35:56.811264","MEAN_MOTION":1.00274224,"ECCENTRICITY":0.00046054,"INCLINATION":2.197,"RA_OF_ASC_NODE":67.1394,"ARG_OF_PERICENTER":320.2031,"MEAN_ANOMALY":2.1784,"EPHEMERIS_TYPE":0,"CLASSIFICATION_TYPE":"U","NORAD_CAT_ID":45807,"ELEMENT_SET_NO":999,"REV_AT_EPOCH":2104,"BSTAR":0,"MEAN_MOTION_DOT":-3.55e-6,"MEAN_MOTION_DDOT":0},{"OBJECT_NAME":"GALAXY 30 (WAAS/PRN 135)","OBJECT_ID":"2020-056C","EPOCH":"2026-03-07T12:25:38.664768","MEAN_MOTION":1.00272034,"ECCENTRICITY":0.00020624,"INCLINATION":0.0219,"RA_OF_ASC_NODE":149.1291,"ARG_OF_PERICENTER":212.1754,"MEAN_ANOMALY":225.3458,"EPHEMERIS_TYPE":0,"CLASSIFICATION_TYPE":"U","NORAD_CAT_ID":46114,"ELEMENT_SET_NO":999,"REV_AT_EPOCH":2027,"BSTAR":0,"MEAN_MOTION_DOT":0,"MEAN_MOTION_DDOT":0},{"OBJECT_NAME":"QZS-1R (QZSS/PRN 196)","OBJECT_ID":"2021-096A","EPOCH":"2026-03-06T19:46:38.510112","MEAN_MOTION":1.00290649,"ECCENTRICITY":0.0747759,"INCLINATION":37.2488,"RA_OF_ASC_NODE":81.0937,"ARG_OF_PERICENTER":269.7649,"MEAN_ANOMALY":244.5984,"EPHEMERIS_TYPE":0,"CLASSIFICATION_TYPE":"U","NORAD_CAT_ID":49336,"ELEMENT_SET_NO":999,"REV_AT_EPOCH":1598,"BSTAR":0,"MEAN_MOTION_DOT":-2.65e-6,"MEAN_MOTION_DDOT":0},{"OBJECT_NAME":"QZS-6 (QZSS/PRN 200)","OBJECT_ID":"2025-023A","EPOCH":"2026-03-07T14:32:57.707808","MEAN_MOTION":1.00269508,"ECCENTRICITY":0.00018132,"INCLINATION":0.02,"RA_OF_ASC_NODE":262.9949,"ARG_OF_PERICENTER":83.9353,"MEAN_ANOMALY":127.092,"EPHEMERIS_TYPE":0,"CLASSIFICATION_TYPE":"U","NORAD_CAT_ID":62876,"ELEMENT_SET_NO":999,"REV_AT_EPOCH":394,"BSTAR":0,"MEAN_MOTION_DOT":-2.34e-6,"MEAN_MOTION_DDOT":0}]
